ONEWEB-0600             
1 54664U 22166Y   26113.91912642 -.00000036  00000+0 -11796-3 0  9996
2 54664  87.9213 254.7849 0002100  97.8651 262.2721 13.21823832164348
ONEWEB-0601             
1 54665U 22166Z   26113.91071750 -.00000010  00000+0 -55136-4 0  9992
2 54665  87.9212 254.8031 0001980 107.2975 252.8376 13.21824188164539
ONEWEB-0602             
1 54666U 22166AA  26113.64915803  .00000092  00000+0  19212-3 0  9991
2 54666  87.9208 254.8616 0002143  97.7445 262.3932 13.21826938164349
ONEWEB-0603             
1 54667U 22166AB  26113.65503881  .00000075  00000+0  15025-3 0  9991
2 54667  87.9223 254.8117 0002002 101.4384 258.6975 13.21827307164270
ONEWEB-0604             
1 54668U 22166AC  26113.64326801  .00000152  00000+0  33541-3 0  9995
2 54668  87.9224 254.8289 0001841  96.8812 263.2531 13.21827519164236
ONEWEB-0605             
1 54669U 22166AD  26113.93932390 -.00000070  00000+0 -20192-3 0  9993
2 54669  87.9213 254.7883 0001835 120.1754 239.9562 13.21826501164349
ONEWEB-0606             
1 54670U 22166AE  26113.35562033  .00000097  00000+0  20321-3 0  9995
2 54670  87.9212 254.9178 0001767  94.0987 266.0349 13.21827083164328
ONEWEB-0607             
1 54671U 22166AF  26113.92753636 -.00000003  00000+0 -37591-4 0  9997
2 54671  87.9217 254.7708 0002025 100.7923 259.3439 13.21824026164378
ONEWEB-0608             
1 54672U 22166AG  26114.31273433 -.00000189  00000+0 -48856-3 0  9994
2 54672  87.9225 254.6890 0002061 115.0791 245.0557 13.21825489164435
ONEWEB-0610             
1 54673U 22166AH  26113.91407626 -.00000083  00000+0 -23144-3 0  9999
2 54673  87.9212 254.7883 0002338 112.7404 247.3977 13.21823967164280
ONEWEB-0611             
1 54674U 22166AJ  26113.68026185  .00000057  00000+0  10560-3 0  9998
2 54674  87.9213 254.8313 0001771  96.3392 263.7944 13.21824778164247
ONEWEB-0612             
1 54675U 22166AK  26113.92081123 -.00000030  00000+0 -10349-3 0  9997
2 54675  87.9224 254.7726 0001934 104.8956 255.2392 13.21823366164266
ONEWEB-0615             
1 54676U 22166AL  26113.67352248 -.00000008  00000+0 -50257-4 0  9997
2 54676  87.9218 254.8415 0001862  90.5990 269.5357 13.21824884164248
ONEWEB-0655             
1 54677U 22166AM  26113.64999431  .00000081  00000+0  16410-3 0  9997
2 54677  87.9211 254.8481 0002143  99.4305 260.7072 13.21827095164239
ONEWEB-0659             
1 54678U 22166AN  26113.66674454 -.00007910  00000+0 -19191-1 0  9992
2 54678  87.9214 254.8448 0001562  93.5717 266.5595 13.21861012164323
ONEWEB-0685             
1 54679U 22166AP  26114.19670592  .00000105  00000+0  22181-3 0  9993
2 54679  87.9208 254.7329 0002038 101.7835 258.3528 13.21816112164287
