[{"OBJECT_NAME":"ONEWEB-0600","OBJECT_ID":"2022-166Y","EPOCH":"2026-04-23T22:03:32.522688","MEAN_MOTION":13.21823832,"ECCENTRICITY":0.00021,"INCLINATION":87.9213,"RA_OF_ASC_NODE":254.7849,"ARG_OF_PERICENTER":97.8651,"MEAN_ANOMALY":262.2721,"EPHEMERIS_TYPE":0,"CLASSIFICATION_TYPE":"U","NORAD_CAT_ID":54664,"ELEMENT_SET_NO":999,"REV_AT_EPOCH":16434,"BSTAR":-0.00011796,"MEAN_MOTION_DOT":-3.6e-07,"MEAN_MOTION_DDOT":0.0},{"OBJECT_NAME":"ONEWEB-0601","OBJECT_ID":"2022-166Z","EPOCH":"2026-04-23T21:51:25.992000","MEAN_MOTION":13.21824188,"ECCENTRICITY":0.000198,"INCLINATION":87.9212,"RA_OF_ASC_NODE":254.8031,"ARG_OF_PERICENTER":107.2975,"MEAN_ANOMALY":252.8376,"EPHEMERIS_TYPE":0,"CLASSIFICATION_TYPE":"U","NORAD_CAT_ID":54665,"ELEMENT_SET_NO":999,"REV_AT_EPOCH":16453,"BSTAR":-5.5136e-05,"MEAN_MOTION_DOT":-1e-07,"MEAN_MOTION_DDOT":0.0},{"OBJECT_NAME":"ONEWEB-0602","OBJECT_ID":"2022-166AA","EPOCH":"2026-04-23T15:34:47.253792","MEAN_MOTION":13.21826938,"ECCENTRICITY":0.0002143,"INCLINATION":87.9208,"RA_OF_ASC_NODE":254.8616,"ARG_OF_PERICENTER":97.7445,"MEAN_ANOMALY":262.3932,"EPHEMERIS_TYPE":0,"CLASSIFICATION_TYPE":"U","NORAD_CAT_ID":54666,"ELEMENT_SET_NO":999,"REV_AT_EPOCH":16434,"BSTAR":0.00019212000000000002,"MEAN_MOTION_DOT":9.2e-07,"MEAN_MOTION_DDOT":0.0},{"OBJECT_NAME":"ONEWEB-0603","OBJECT_ID":"2022-166AB","EPOCH":"2026-04-23T15:43:15.353184","MEAN_MOTION":13.21827307,"ECCENTRICITY":0.0002002,"INCLINATION":87.9223,"RA_OF_ASC_NODE":254.8117,"ARG_OF_PERICENTER":101.4384,"MEAN_ANOMALY":258.6975,"EPHEMERIS_TYPE":0,"CLASSIFICATION_TYPE":"U","NORAD_CAT_ID":54667,"ELEMENT_SET_NO":999,"REV_AT_EPOCH":16427,"BSTAR":0.00015025,"MEAN_MOTION_DOT":7.5e-07,"MEAN_MOTION_DDOT":0.0},{"OBJECT_NAME":"ONEWEB-0604","OBJECT_ID":"2022-166AC","EPOCH":"2026-04-23T15:26:18.356064","MEAN_MOTION":13.21827519,"ECCENTRICITY":0.0001841,"INCLINATION":87.9224,"RA_OF_ASC_NODE":254.8289,"ARG_OF_PERICENTER":96.8812,"MEAN_ANOMALY":263.2531,"EPHEMERIS_TYPE":0,"CLASSIFICATION_TYPE":"U","NORAD_CAT_ID":54668,"ELEMENT_SET_NO":999,"REV_AT_EPOCH":16423,"BSTAR":0.00033541,"MEAN_MOTION_DOT":1.52e-06,"MEAN_MOTION_DDOT":0.0},{"OBJECT_NAME":"ONEWEB-0605","OBJECT_ID":"2022-166AD","EPOCH":"2026-04-23T22:32:37.584960","MEAN_MOTION":13.21826501,"ECCENTRICITY":0.0001835,"INCLINATION":87.9213,"RA_OF_ASC_NODE":254.7883,"ARG_OF_PERICENTER":120.1754,"MEAN_ANOMALY":239.9562,"EPHEMERIS_TYPE":0,"CLASSIFICATION_TYPE":"U","NORAD_CAT_ID":54669,"ELEMENT_SET_NO":999,"REV_AT_EPOCH":16434,"BSTAR":-0.00020192,"MEAN_MOTION_DOT":-7e-07,"MEAN_MOTION_DDOT":0.0},{"OBJECT_NAME":"ONEWEB-0606","OBJECT_ID":"2022-166AE","EPOCH":"2026-04-23T08:32:05.596512","MEAN_MOTION":13.21827083,"ECCENTRICITY":0.0001767,"INCLINATION":87.9212,"RA_OF_ASC_NODE":254.9178,"ARG_OF_PERICENTER":94.0987,"MEAN_ANOMALY":266.0349,"EPHEMERIS_TYPE":0,"CLASSIFICATION_TYPE":"U","NORAD_CAT_ID":54670,"ELEMENT_SET_NO":999,"REV_AT_EPOCH":16432,"BSTAR":0.00020321,"MEAN_MOTION_DOT":9.7e-07,"MEAN_MOTION_DDOT":0.0},{"OBJECT_NAME":"ONEWEB-0607","OBJECT_ID":"2022-166AF","EPOCH":"2026-04-23T22:15:39.141504","MEAN_MOTION":13.21824026,"ECCENTRICITY":0.0002025,"INCLINATION":87.9217,"RA_OF_ASC_NODE":254.7708,"ARG_OF_PERICENTER":100.7923,"MEAN_ANOMALY":259.3439,"EPHEMERIS_TYPE":0,"CLASSIFICATION_TYPE":"U","NORAD_CAT_ID":54671,"ELEMENT_SET_NO":999,"REV_AT_EPOCH":16437,"BSTAR":-3.7591000000000007e-05,"MEAN_MOTION_DOT":-3e-08,"MEAN_MOTION_DDOT":0.0},{"OBJECT_NAME":"ONEWEB-0608","OBJECT_ID":"2022-166AG","EPOCH":"2026-04-24T07:30:20.246112","MEAN_MOTION":13.21825489,"ECCENTRICITY":0.0002061,"INCLINATION":87.9225,"RA_OF_ASC_NODE":254.689,"ARG_OF_PERICENTER":115.0791,"MEAN_ANOMALY":245.0557,"EPHEMERIS_TYPE":0,"CLASSIFICATION_TYPE":"U","NORAD_CAT_ID":54672,"ELEMENT_SET_NO":999,"REV_AT_EPOCH":16443,"BSTAR":-0.00048856,"MEAN_MOTION_DOT":-1.89e-06,"MEAN_MOTION_DDOT":0.0},{"OBJECT_NAME":"ONEWEB-0610","OBJECT_ID":"2022-166AH","EPOCH":"2026-04-23T21:56:16.188864","MEAN_MOTION":13.21823967,"ECCENTRICITY":0.0002338,"INCLINATION":87.9212,"RA_OF_ASC_NODE":254.7883,"ARG_OF_PERICENTER":112.7404,"MEAN_ANOMALY":247.3977,"EPHEMERIS_TYPE":0,"CLASSIFICATION_TYPE":"U","NORAD_CAT_ID":54673,"ELEMENT_SET_NO":999,"REV_AT_EPOCH":16428,"BSTAR":-0.00023144000000000002,"MEAN_MOTION_DOT":-8.3e-07,"MEAN_MOTION_DDOT":0.0},{"OBJECT_NAME":"ONEWEB-0611","OBJECT_ID":"2022-166AJ","EPOCH":"2026-04-23T16:19:34.623840","MEAN_MOTION":13.21824778,"ECCENTRICITY":0.0001771,"INCLINATION":87.9213,"RA_OF_ASC_NODE":254.8313,"ARG_OF_PERICENTER":96.3392,"MEAN_ANOMALY":263.7944,"EPHEMERIS_TYPE":0,"CLASSIFICATION_TYPE":"U","NORAD_CAT_ID":54674,"ELEMENT_SET_NO":999,"REV_AT_EPOCH":16424,"BSTAR":0.0001056,"MEAN_MOTION_DOT":5.7e-07,"MEAN_MOTION_DDOT":0.0},{"OBJECT_NAME":"ONEWEB-0612","OBJECT_ID":"2022-166AK","EPOCH":"2026-04-23T22:05:58.090272","MEAN_MOTION":13.21823366,"ECCENTRICITY":0.0001934,"INCLINATION":87.9224,"RA_OF_ASC_NODE":254.7726,"ARG_OF_PERICENTER":104.8956,"MEAN_ANOMALY":255.2392,"EPHEMERIS_TYPE":0,"CLASSIFICATION_TYPE":"U","NORAD_CAT_ID":54675,"ELEMENT_SET_NO":999,"REV_AT_EPOCH":16426,"BSTAR":-0.00010349,"MEAN_MOTION_DOT":-3e-07,"MEAN_MOTION_DDOT":0.0},{"OBJECT_NAME":"ONEWEB-0615","OBJECT_ID":"2022-166AL","EPOCH":"2026-04-23T16:09:52.342272","MEAN_MOTION":13.21824884,"ECCENTRICITY":0.0001862,"INCLINATION":87.9218,"RA_OF_ASC_NODE":254.8415,"ARG_OF_PERICENTER":90.599,"MEAN_ANOMALY":269.5357,"EPHEMERIS_TYPE":0,"CLASSIFICATION_TYPE":"U","NORAD_CAT_ID":54676,"ELEMENT_SET_NO":999,"REV_AT_EPOCH":16424,"BSTAR":-5.0257e-05,"MEAN_MOTION_DOT":-8e-08,"MEAN_MOTION_DDOT":0.0},{"OBJECT_NAME":"ONEWEB-0655","OBJECT_ID":"2022-166AM","EPOCH":"2026-04-23T15:35:59.508384","MEAN_MOTION":13.21827095,"ECCENTRICITY":0.0002143,"INCLINATION":87.9211,"RA_OF_ASC_NODE":254.8481,"ARG_OF_PERICENTER":99.4305,"MEAN_ANOMALY":260.7072,"EPHEMERIS_TYPE":0,"CLASSIFICATION_TYPE":"U","NORAD_CAT_ID":54677,"ELEMENT_SET_NO":999,"REV_AT_EPOCH":16423,"BSTAR":0.0001641,"MEAN_MOTION_DOT":8.1e-07,"MEAN_MOTION_DDOT":0.0},{"OBJECT_NAME":"ONEWEB-0659","OBJECT_ID":"2022-166AN","EPOCH":"2026-04-23T16:00:06.728256","MEAN_MOTION":13.21861012,"ECCENTRICITY":0.0001562,"INCLINATION":87.9214,"RA_OF_ASC_NODE":254.8448,"ARG_OF_PERICENTER":93.5717,"MEAN_ANOMALY":266.5595,"EPHEMERIS_TYPE":0,"CLASSIFICATION_TYPE":"U","NORAD_CAT_ID":54678,"ELEMENT_SET_NO":999,"REV_AT_EPOCH":16432,"BSTAR":-0.019191,"MEAN_MOTION_DOT":-7.91e-05,"MEAN_MOTION_DDOT":0.0},{"OBJECT_NAME":"ONEWEB-0685","OBJECT_ID":"2022-166AP","EPOCH":"2026-04-24T04:43:15.391488","MEAN_MOTION":13.21816112,"ECCENTRICITY":0.0002038,"INCLINATION":87.9208,"RA_OF_ASC_NODE":254.7329,"ARG_OF_PERICENTER":101.7835,"MEAN_ANOMALY":258.3528,"EPHEMERIS_TYPE":0,"CLASSIFICATION_TYPE":"U","NORAD_CAT_ID":54679,"ELEMENT_SET_NO":999,"REV_AT_EPOCH":16428,"BSTAR":0.00022181000000000002,"MEAN_MOTION_DOT":1.05e-06,"MEAN_MOTION_DDOT":0.0}]